{"type": "FeatureCollection", "features": [ {"type": "Feature", "properties": {"norad_id": 40118, "name": "GAOFEN-2", "group": "resource", "lat": 37.73261302463382, "lon": -114.58762383904076, "alt_km": 622.0624214340669, "timestamp": "2025-12-25T22:42:16.653526+00:00", "meta": {"OBJECT_NAME": "GAOFEN-2", "OBJECT_ID": "2014-049A", "EPOCH": "2025-12-25T18:49:25.011264", "MEAN_MOTION": 14.80629234, "ECCENTRICITY": 0.0008704, "INCLINATION": 98.0363, "RA_OF_ASC_NODE": 58.9741, "ARG_OF_PERICENTER": 76.8288, "MEAN_ANOMALY": 283.3895, "EPHEMERIS_TYPE": 0, "CLASSIFICATION_TYPE": "U", "NORAD_CAT_ID": 40118, "ELEMENT_SET_NO": 999, "REV_AT_EPOCH": 61357, "BSTAR": 9.4954e-05, "MEAN_MOTION_DOT": 6.76e-06, "MEAN_MOTION_DDOT": 0}, "tle": {"line1": "1 40118U 14049A   25359.78431726  .00000676  00000+0  94954-4 0  9997", "line2": "2 40118  98.0363  58.9741 0008704  76.8288 283.3895 14.80629234613576"}}, "geometry": {"type": "Point", "coordinates": [-114.58762383904076, 37.73261302463382]}}, {"type": "Feature", "properties": {"norad_id": 40143, "name": "YAOGAN-21", "group": "resource", "lat": -8.778786624216622, "lon": 43.79834658640533, "alt_km": 492.7538586673063, "timestamp": "2025-12-25T22:42:16.653536+00:00", "meta": {"OBJECT_NAME": "YAOGAN-21", "OBJECT_ID": "2014-053A", "EPOCH": "2025-12-25T18:00:54.825120", "MEAN_MOTION": 15.23800919, "ECCENTRICITY": 0.0008492, "INCLINATION": 97.1734, "RA_OF_ASC_NODE": 42.497, "ARG_OF_PERICENTER": 358.5338, "MEAN_ANOMALY": 1.5873, "EPHEMERIS_TYPE": 0, "CLASSIFICATION_TYPE": "U", "NORAD_CAT_ID": 40143, "ELEMENT_SET_NO": 999, "REV_AT_EPOCH": 62852, "BSTAR": 0.00016656, "MEAN_MOTION_DOT": 3.946e-05, "MEAN_MOTION_DDOT": 0}, "tle": {"line1": "1 40143U 14053A   25359.75063455  .00003946  00000+0  16656-3 0  9992", "line2": "2 40143  97.1734  42.4970 0008492 358.5338   1.5873 15.23800919628524"}}, "geometry": {"type": "Point", "coordinates": [43.79834658640533, -8.778786624216622]}}, {"type": "Feature", "properties": {"norad_id": 40275, "name": "YAOGAN-22", "group": "resource", "lat": 23.43001112585618, "lon": 138.8332108494523, "alt_km": 1205.6418897351768, "timestamp": "2025-12-25T22:42:16.653546+00:00", "meta": {"OBJECT_NAME": "YAOGAN-22", "OBJECT_ID": "2014-063A", "EPOCH": "2025-12-25T15:16:57.245952", "MEAN_MOTION": 13.15523272, "ECCENTRICITY": 0.0006094, "INCLINATION": 100.743, "RA_OF_ASC_NODE": 143.2387, "ARG_OF_PERICENTER": 217.4039, "MEAN_ANOMALY": 142.6648, "EPHEMERIS_TYPE": 0, "CLASSIFICATION_TYPE": "U", "NORAD_CAT_ID": 40275, "ELEMENT_SET_NO": 999, "REV_AT_EPOCH": 53699, "BSTAR": 5.775e-05, "MEAN_MOTION_DOT": -2.5e-07, "MEAN_MOTION_DDOT": 0}, "tle": {"line1": "1 40275U 14063A   25359.63677368 -.00000025  00000+0  57750-4 0  9997", "line2": "2 40275 100.7430 143.2387 0006094 217.4039 142.6648 13.15523272536992"}}, "geometry": {"type": "Point", "coordinates": [138.8332108494523, 23.43001112585618]}}, {"type": "Feature", "properties": {"norad_id": 40298, "name": "ASNARO", "group": "resource", "lat": -24.02984589230775, "lon": -107.73523780240087, "alt_km": 513.9825884257443, "timestamp": "2025-12-25T22:42:16.653556+00:00", "meta": {"OBJECT_NAME": "ASNARO", "OBJECT_ID": "2014-070A", "EPOCH": "2025-12-25T18:38:57.483744", "MEAN_MOTION": 15.19761106, "ECCENTRICITY": 0.0005689, "INCLINATION": 97.3631, "RA_OF_ASC_NODE": 75.4051, "ARG_OF_PERICENTER": 86.9308, "MEAN_ANOMALY": 273.2578, "EPHEMERIS_TYPE": 0, "CLASSIFICATION_TYPE": "U", "NORAD_CAT_ID": 40298, "ELEMENT_SET_NO": 999, "REV_AT_EPOCH": 61767, "BSTAR": 0.00058195, "MEAN_MOTION_DOT": 0.00012397, "MEAN_MOTION_DDOT": 0}, "tle": {"line1": "1 40298U 14070A   25359.77705421  .00012397  00000+0  58195-3 0  9994", "line2": "2 40298  97.3631  75.4051 0005689  86.9308 273.2578 15.19761106617676"}}, "geometry": {"type": "Point", "coordinates": [-107.73523780240087, -24.02984589230775]}}, {"type": "Feature", "properties": {"norad_id": 40310, "name": "YAOGAN-24", "group": "resource", "lat": -80.38005010183436, "lon": -171.46428617353513, "alt_km": 659.3381675263081, "timestamp": "2025-12-25T22:42:16.653566+00:00", "meta": {"OBJECT_NAME": "YAOGAN-24", "OBJECT_ID": "2014-072A", "EPOCH": "2025-12-25T18:12:32.383296", "MEAN_MOTION": 14.76205134, "ECCENTRICITY": 0.001522, "INCLINATION": 98.1233, "RA_OF_ASC_NODE": 130.9224, "ARG_OF_PERICENTER": 99.1573, "MEAN_ANOMALY": 261.1359, "EPHEMERIS_TYPE": 0, "CLASSIFICATION_TYPE": "U", "NORAD_CAT_ID": 40310, "ELEMENT_SET_NO": 999, "REV_AT_EPOCH": 59813, "BSTAR": 0.00022987, "MEAN_MOTION_DOT": 1.54e-05, "MEAN_MOTION_DDOT": 0}, "tle": {"line1": "1 40310U 14072A   25359.75870814  .00001540  00000+0  22987-3 0  9996", "line2": "2 40310  98.1233 130.9224 0015220  99.1573 261.1359 14.76205134598137"}}, "geometry": {"type": "Point", "coordinates": [-171.46428617353513, -80.38005010183436]}}, {"type": "Feature", "properties": {"norad_id": 40336, "name": "CBERS 4", "group": "resource", "lat": -63.78569446460413, "lon": -139.79896058439542, "alt_km": 781.6546674841802, "timestamp": "2025-12-25T22:42:16.653576+00:00", "meta": {"OBJECT_NAME": "CBERS 4", "OBJECT_ID": "2014-079A", "EPOCH": "2025-12-25T18:13:16.335840", "MEAN_MOTION": 14.35522971, "ECCENTRICITY": 0.0001876, "INCLINATION": 98.3286, "RA_OF_ASC_NODE": 57.3292, "ARG_OF_PERICENTER": 97.5523, "MEAN_ANOMALY": 262.5877, "EPHEMERIS_TYPE": 0, "CLASSIFICATION_TYPE": "U", "NORAD_CAT_ID": 40336, "ELEMENT_SET_NO": 999, "REV_AT_EPOCH": 57907, "BSTAR": 9.7366e-05, "MEAN_MOTION_DOT": 2.38e-06, "MEAN_MOTION_DDOT": 0}, "tle": {"line1": "1 40336U 14079A   25359.75921685  .00000238  00000+0  97366-4 0  9991", "line2": "2 40336  98.3286  57.3292 0001876  97.5523 262.5877 14.35522971579079"}}, "geometry": {"type": "Point", "coordinates": [-139.79896058439542, -63.78569446460413]}}, {"type": "Feature", "properties": {"norad_id": 40362, "name": "YAOGAN-26", "group": "resource", "lat": 81.17052450626213, "lon": -126.86968951161765, "alt_km": 440.2806975843823, "timestamp": "2025-12-25T22:42:16.653586+00:00", "meta": {"OBJECT_NAME": "YAOGAN-26", "OBJECT_ID": "2014-088A", "EPOCH": "2025-12-25T17:36:47.933568", "MEAN_MOTION": 15.39746527, "ECCENTRICITY": 0.0004241, "INCLINATION": 97.0648, "RA_OF_ASC_NODE": 359.9472, "ARG_OF_PERICENTER": 348.9614, "MEAN_ANOMALY": 11.1538, "EPHEMERIS_TYPE": 0, "CLASSIFICATION_TYPE": "U", "NORAD_CAT_ID": 40362, "ELEMENT_SET_NO": 999, "REV_AT_EPOCH": 61094, "BSTAR": 0.00034597, "MEAN_MOTION_DOT": 0.00013622, "MEAN_MOTION_DDOT": 0}, "tle": {"line1": "1 40362U 14088A   25359.73388812  .00013622  00000+0  34597-3 0  9994", "line2": "2 40362  97.0648 359.9472 0004241 348.9614  11.1538 15.39746527610944"}}, "geometry": {"type": "Point", "coordinates": [-126.86968951161765, 81.17052450626213]}}, {"type": "Feature", "properties": {"norad_id": 40376, "name": "SMAP", "group": "resource", "lat": -30.756664694010755, "lon": 9.358990649497498, "alt_km": 688.8165140044603, "timestamp": "2025-12-25T22:42:16.653597+00:00", "meta": {"OBJECT_NAME": "SMAP", "OBJECT_ID": "2015-003A", "EPOCH": "2025-12-25T17:55:24.091104", "MEAN_MOTION": 14.63360737, "ECCENTRICITY": 0.0001238, "INCLINATION": 98.1291, "RA_OF_ASC_NODE": 4.2832, "ARG_OF_PERICENTER": 92.1208, "MEAN_ANOMALY": 268.0136, "EPHEMERIS_TYPE": 0, "CLASSIFICATION_TYPE": "U", "NORAD_CAT_ID": 40376, "ELEMENT_SET_NO": 999, "REV_AT_EPOCH": 58225, "BSTAR": 0.00011863, "MEAN_MOTION_DOT": 5.66e-06, "MEAN_MOTION_DDOT": 0}, "tle": {"line1": "1 40376U 15003A   25359.74680661  .00000566  00000+0  11863-3 0  9999", "line2": "2 40376  98.1291   4.2832 0001238  92.1208 268.0136 14.63360737582255"}}, "geometry": {"type": "Point", "coordinates": [9.358990649497498, -30.756664694010755]}}, {"type": "Feature", "properties": {"norad_id": 40536, "name": "KOMPSAT-3A", "group": "resource", "lat": -75.329313699861, "lon": 123.9953999535379, "alt_km": 443.97761948869083, "timestamp": "2025-12-25T22:42:16.653607+00:00", "meta": {"OBJECT_NAME": "KOMPSAT-3A", "OBJECT_ID": "2015-014A", "EPOCH": "2025-12-25T18:29:00.972960", "MEAN_MOTION": 15.44422952, "ECCENTRICITY": 0.0005629, "INCLINATION": 97.6808, "RA_OF_ASC_NODE": 334.8413, "ARG_OF_PERICENTER": 98.642, "MEAN_ANOMALY": 261.5465, "EPHEMERIS_TYPE": 0, "CLASSIFICATION_TYPE": "U", "NORAD_CAT_ID": 40536, "ELEMENT_SET_NO": 999, "REV_AT_EPOCH": 59496, "BSTAR": 0.00045048, "MEAN_MOTION_DOT": 0.00020773, "MEAN_MOTION_DDOT": 0}, "tle": {"line1": "1 40536U 15014A   25359.77015015  .00020773  00000+0  45048-3 0  9991", "line2": "2 40536  97.6808 334.8413 0005629  98.6420 261.5465 15.44422952594965"}}, "geometry": {"type": "Point", "coordinates": [123.9953999535379, -75.329313699861]}}, {"type": "Feature", "properties": {"norad_id": 40697, "name": "SENTINEL-2A", "group": "resource", "lat": 80.96990073367532, "lon": -36.05436620058029, "alt_km": 780.8223850876539, "timestamp": "2025-12-25T22:42:16.653617+00:00", "meta": {"OBJECT_NAME": "SENTINEL-2A", "OBJECT_ID": "2015-028A", "EPOCH": "2025-12-25T18:54:56.947968", "MEAN_MOTION": 14.30810811, "ECCENTRICITY": 0.0001054, "INCLINATION": 98.5726, "RA_OF_ASC_NODE": 72.138, "ARG_OF_PERICENTER": 87.7463, "MEAN_ANOMALY": 272.384, "EPHEMERIS_TYPE": 0, "CLASSIFICATION_TYPE": "U", "NORAD_CAT_ID": 40697, "ELEMENT_SET_NO": 999, "REV_AT_EPOCH": 54893, "BSTAR": 8.4496e-05, "MEAN_MOTION_DOT": 1.78e-06, "MEAN_MOTION_DDOT": 0}, "tle": {"line1": "1 40697U 15028A   25359.78815912  .00000178  00000+0  84496-4 0  9997", "line2": "2 40697  98.5726  72.1380 0001054  87.7463 272.3840 14.30810811548933"}}, "geometry": {"type": "Point", "coordinates": [-36.05436620058029, 80.96990073367532]}}]}